ONEWEB-0037             
1 45440U 20020S   23289.04111714 -.00000144  00000+0 -44324-3 0  9994
2 45440  87.8991 214.7579 0002042  82.2003 277.9357 13.11417697174898
ONEWEB-0042             
1 45441U 20020T   23288.81999436 -.00000447  00000+0 -12980-2 0  9992
2 45441  87.8987 214.8220 0002085  77.7396 282.3965 13.11417195174820
ONEWEB-0098             
1 45442U 20020U   23289.04273860 -.00000140  00000+0 -42965-3 0  9992
2 45442  87.8995 214.7816 0001853  69.9659 290.1669 13.11418362174833
ONEWEB-0055             
1 45443U 20020V   23288.87797182  .00000224  00000+0  59635-3 0  9994
2 45443  87.8995 214.8180 0001921  67.5357 292.5974 13.11414829174787
ONEWEB-0093             
1 45444U 20020W   23289.15638773  .00000151  00000+0  38970-3 0  9995
2 45444  87.8988 214.7471 0002111  66.3881 293.7468 13.11420160174891
ONEWEB-0029             
1 45445U 20020X   23289.17585294  .00000714  00000+0  19796-2 0  9996
2 45445  87.8994 214.7519 0002152  77.4370 282.6998 13.11415707174877
ONEWEB-0068             
1 45446U 20020Y   23289.30326869 -.00000050  00000+0 -17739-3 0  9994
2 45446  87.8990 214.7167 0002062  71.2940 288.8411 13.11415712174838
ONEWEB-0046             
1 45447U 20020Z   23289.30086665  .00000204  00000+0  54080-3 0  9991
2 45447  87.8988 214.7298 0002100  81.7812 278.3554 13.11413129174841
